{"type": "FeatureCollection", "features": [ {"type": "Feature", "properties": {"norad_id": 42741, "name": "EUTELSAT 172B", "group": "eutelsat", "lat": -0.020357955211528615, "lon": -36.69511380774938, "alt_km": 35786.810676386005, "timestamp": "2025-12-24T03:53:29.313882+00:00", "meta": {"OBJECT_NAME": "EUTELSAT 172B", "OBJECT_ID": "2017-029B", "EPOCH": "2025-12-23T12:43:38.693280", "MEAN_MOTION": 1.0026951, "ECCENTRICITY": 1.96e-05, "INCLINATION": 0.0266, "RA_OF_ASC_NODE": 119.5369, "ARG_OF_PERICENTER": 301.465, "MEAN_ANOMALY": 34.2329, "EPHEMERIS_TYPE": 0, "CLASSIFICATION_TYPE": "U", "NORAD_CAT_ID": 42741, "ELEMENT_SET_NO": 999, "REV_AT_EPOCH": 3197, "BSTAR": 0, "MEAN_MOTION_DOT": 1.5e-07, "MEAN_MOTION_DDOT": 0}, "tle": {"line1": "1 42741U 17029B   25357.53030895  .00000015  00000+0  00000+0 0  9996", "line2": "2 42741   0.0266 119.5369 0000196 301.4650  34.2329  1.00269510 31970"}}, "geometry": {"type": "Point", "coordinates": [-36.69511380774938, -0.020357955211528615]}}, {"type": "Feature", "properties": {"norad_id": 44334, "name": "EUTELSAT 7C", "group": "eutelsat", "lat": -0.009051749459216572, "lon": 158.24611206388985, "alt_km": 35788.30330216164, "timestamp": "2025-12-24T03:53:29.313894+00:00", "meta": {"OBJECT_NAME": "EUTELSAT 7C", "OBJECT_ID": "2019-034B", "EPOCH": "2025-12-23T18:18:07.081344", "MEAN_MOTION": 1.00270622, "ECCENTRICITY": 0.0003127, "INCLINATION": 0.0725, "RA_OF_ASC_NODE": 178.6037, "ARG_OF_PERICENTER": 77.8365, "MEAN_ANOMALY": 117.613, "EPHEMERIS_TYPE": 0, "CLASSIFICATION_TYPE": "U", "NORAD_CAT_ID": 44334, "ELEMENT_SET_NO": 999, "REV_AT_EPOCH": 507, "BSTAR": 0, "MEAN_MOTION_DOT": 6.9e-07, "MEAN_MOTION_DDOT": 0}, "tle": {"line1": "1 44334U 19034B   25357.76258196  .00000069  00000+0  00000+0 0  9994", "line2": "2 44334   0.0725 178.6037 0003127  77.8365 117.6130  1.00270622  5076"}}, "geometry": {"type": "Point", "coordinates": [158.24611206388985, -0.009051749459216572]}}, {"type": "Feature", "properties": {"norad_id": 44624, "name": "EUTELSAT 5 WEST B", "group": "eutelsat", "lat": 0.03046398407286443, "lon": 146.28017122075667, "alt_km": 35793.75706321122, "timestamp": "2025-12-24T03:53:29.313906+00:00", "meta": {"OBJECT_NAME": "EUTELSAT 5 WEST B", "OBJECT_ID": "2019-067A", "EPOCH": "2025-12-23T18:14:37.416192", "MEAN_MOTION": 1.00271346, "ECCENTRICITY": 0.0003078, "INCLINATION": 0.0642, "RA_OF_ASC_NODE": 341.4423, "ARG_OF_PERICENTER": 290.2674, "MEAN_ANOMALY": 89.4941, "EPHEMERIS_TYPE": 0, "CLASSIFICATION_TYPE": "U", "NORAD_CAT_ID": 44624, "ELEMENT_SET_NO": 999, "REV_AT_EPOCH": 2267, "BSTAR": 0, "MEAN_MOTION_DOT": -2.1e-07, "MEAN_MOTION_DDOT": 0}, "tle": {"line1": "1 44624U 19067A   25357.76015528 -.00000021  00000+0  00000+0 0  9991", "line2": "2 44624   0.0642 341.4423 0003078 290.2674  89.4941  1.00271346 22679"}}, "geometry": {"type": "Point", "coordinates": [146.28017122075667, 0.03046398407286443]}}, {"type": "Feature", "properties": {"norad_id": 45027, "name": "EUTELSAT KONNECT", "group": "eutelsat", "lat": 0.07664724100492304, "lon": 158.49595818751396, "alt_km": 35789.00801606898, "timestamp": "2025-12-24T03:53:29.313918+00:00", "meta": {"OBJECT_NAME": "EUTELSAT KONNECT", "OBJECT_ID": "2020-005B", "EPOCH": "2025-12-22T14:54:44.385984", "MEAN_MOTION": 1.00271247, "ECCENTRICITY": 0.00013494, "INCLINATION": 0.0714, "RA_OF_ASC_NODE": 94.3931, "ARG_OF_PERICENTER": 184.6433, "MEAN_ANOMALY": 43.2748, "EPHEMERIS_TYPE": 0, "CLASSIFICATION_TYPE": "U", "NORAD_CAT_ID": 45027, "ELEMENT_SET_NO": 999, "REV_AT_EPOCH": 2256, "BSTAR": 0, "MEAN_MOTION_DOT": 7.1e-07, "MEAN_MOTION_DDOT": 0}, "tle": {"line1": "1 45027U 20005B   25356.62134706  .00000071  00000+0  00000+0 0  9991", "line2": "2 45027   0.0714  94.3931 0001349 184.6433  43.2748  1.00271247 22564"}}, "geometry": {"type": "Point", "coordinates": [158.49595818751396, 0.07664724100492304]}}, {"type": "Feature", "properties": {"norad_id": 49056, "name": "EUTELSAT QUANTUM", "group": "eutelsat", "lat": -0.005635821714493325, "lon": -161.02796175624937, "alt_km": 35784.54498131182, "timestamp": "2025-12-24T03:53:29.313930+00:00", "meta": {"OBJECT_NAME": "EUTELSAT QUANTUM", "OBJECT_ID": "2021-069B", "EPOCH": "2025-12-23T18:29:43.467936", "MEAN_MOTION": 1.00270733, "ECCENTRICITY": 0.0003394, "INCLINATION": 0.0105, "RA_OF_ASC_NODE": 8.4538, "ARG_OF_PERICENTER": 273.4444, "MEAN_ANOMALY": 135.7935, "EPHEMERIS_TYPE": 0, "CLASSIFICATION_TYPE": "U", "NORAD_CAT_ID": 49056, "ELEMENT_SET_NO": 999, "REV_AT_EPOCH": 1616, "BSTAR": 0, "MEAN_MOTION_DOT": 1.47e-06, "MEAN_MOTION_DDOT": 0}, "tle": {"line1": "1 49056U 21069B   25357.77064199  .00000147  00000+0  00000+0 0  9997", "line2": "2 49056   0.0105   8.4538 0003394 273.4444 135.7935  1.00270733 16167"}}, "geometry": {"type": "Point", "coordinates": [-161.02796175624937, -0.005635821714493325]}}, {"type": "Feature", "properties": {"norad_id": 53765, "name": "EUTELSAT KONNECT VHTS", "group": "eutelsat", "lat": 0.06360723914396663, "lon": 153.9952209511918, "alt_km": 35787.38153900466, "timestamp": "2025-12-24T03:53:29.313942+00:00", "meta": {"OBJECT_NAME": "EUTELSAT KONNECT VHTS", "OBJECT_ID": "2022-110A", "EPOCH": "2025-12-22T14:53:22.017408", "MEAN_MOTION": 1.00268229, "ECCENTRICITY": 0.00023717, "INCLINATION": 0.0613, "RA_OF_ASC_NODE": 98.5283, "ARG_OF_PERICENTER": 147.5122, "MEAN_ANOMALY": 71.4567, "EPHEMERIS_TYPE": 0, "CLASSIFICATION_TYPE": "U", "NORAD_CAT_ID": 53765, "ELEMENT_SET_NO": 999, "REV_AT_EPOCH": 505, "BSTAR": 0, "MEAN_MOTION_DOT": 3.8e-07, "MEAN_MOTION_DDOT": 0}, "tle": {"line1": "1 53765U 22110A   25356.62039372  .00000038  00000+0  00000+0 0  9994", "line2": "2 53765   0.0613  98.5283 0002371 147.5122  71.4567  1.00268229  5058"}}, "geometry": {"type": "Point", "coordinates": [153.9952209511918, 0.06360723914396663]}}, {"type": "Feature", "properties": {"norad_id": 54048, "name": "EUTELSAT HOTBIRD 13F", "group": "eutelsat", "lat": -0.026293384370515312, "lon": 164.3179241946473, "alt_km": 35794.8851963302, "timestamp": "2025-12-24T03:53:29.313954+00:00", "meta": {"OBJECT_NAME": "EUTELSAT HOTBIRD 13F", "OBJECT_ID": "2022-134A", "EPOCH": "2025-12-21T21:49:07.084128", "MEAN_MOTION": 1.00271763, "ECCENTRICITY": 0.00022808, "INCLINATION": 0.0525, "RA_OF_ASC_NODE": 292.4073, "ARG_OF_PERICENTER": 71.4737, "MEAN_ANOMALY": 67.1177, "EPHEMERIS_TYPE": 0, "CLASSIFICATION_TYPE": "U", "NORAD_CAT_ID": 54048, "ELEMENT_SET_NO": 999, "REV_AT_EPOCH": 1160, "BSTAR": 0, "MEAN_MOTION_DOT": 1.09e-06, "MEAN_MOTION_DDOT": 0}, "tle": {"line1": "1 54048U 22134A   25355.90910977  .00000109  00000+0  00000+0 0  9993", "line2": "2 54048   0.0525 292.4073 0002280  71.4737  67.1177  1.00271763 11607"}}, "geometry": {"type": "Point", "coordinates": [164.3179241946473, -0.026293384370515312]}}, {"type": "Feature", "properties": {"norad_id": 54225, "name": "EUTELSAT HOTBIRD 13G", "group": "eutelsat", "lat": -0.029348323979955394, "lon": 164.408879711529, "alt_km": 35779.94540710992, "timestamp": "2025-12-24T03:53:29.313965+00:00", "meta": {"OBJECT_NAME": "EUTELSAT HOTBIRD 13G", "OBJECT_ID": "2022-146A", "EPOCH": "2025-12-22T04:02:38.705856", "MEAN_MOTION": 1.00287196, "ECCENTRICITY": 6.245e-05, "INCLINATION": 0.0535, "RA_OF_ASC_NODE": 228.1743, "ARG_OF_PERICENTER": 347.6873, "MEAN_ANOMALY": 308.7697, "EPHEMERIS_TYPE": 0, "CLASSIFICATION_TYPE": "U", "NORAD_CAT_ID": 54225, "ELEMENT_SET_NO": 999, "REV_AT_EPOCH": 569, "BSTAR": 0, "MEAN_MOTION_DOT": 1.11e-06, "MEAN_MOTION_DDOT": 0}, "tle": {"line1": "1 54225U 22146A   25356.16850354  .00000111  00000+0  00000+0 0  9997", "line2": "2 54225   0.0535 228.1743 0000624 347.6873 308.7697  1.00287196  5694"}}, "geometry": {"type": "Point", "coordinates": [164.408879711529, -0.029348323979955394]}}, {"type": "Feature", "properties": {"norad_id": 54259, "name": "EUTELSAT 10B", "group": "eutelsat", "lat": 0.06529058248508082, "lon": 161.34412045652263, "alt_km": 35784.319223793296, "timestamp": "2025-12-24T03:53:29.313977+00:00", "meta": {"OBJECT_NAME": "EUTELSAT 10B", "OBJECT_ID": "2022-157A", "EPOCH": "2025-12-23T01:11:43.653984", "MEAN_MOTION": 1.00272927, "ECCENTRICITY": 7.192e-05, "INCLINATION": 0.061, "RA_OF_ASC_NODE": 96.1012, "ARG_OF_PERICENTER": 1.3181, "MEAN_ANOMALY": 22.3816, "EPHEMERIS_TYPE": 0, "CLASSIFICATION_TYPE": "U", "NORAD_CAT_ID": 54259, "ELEMENT_SET_NO": 999, "REV_AT_EPOCH": 1126, "BSTAR": 0, "MEAN_MOTION_DOT": 9e-07, "MEAN_MOTION_DDOT": 0}, "tle": {"line1": "1 54259U 22157A   25357.04981081  .00000090  00000+0  00000+0 0  9992", "line2": "2 54259   0.0610  96.1012 0000719   1.3181  22.3816  1.00272927 11266"}}, "geometry": {"type": "Point", "coordinates": [161.34412045652263, 0.06529058248508082]}}, {"type": "Feature", "properties": {"norad_id": 59346, "name": "EUTELSAT 36D", "group": "eutelsat", "lat": 0.013465665732742447, "lon": -172.8201517559485, "alt_km": 35787.181697327425, "timestamp": "2025-12-24T03:53:29.313989+00:00", "meta": {"OBJECT_NAME": "EUTELSAT 36D", "OBJECT_ID": "2024-059A", "EPOCH": "2025-12-23T18:26:21.291072", "MEAN_MOTION": 1.00272824, "ECCENTRICITY": 3.44e-05, "INCLINATION": 0.0186, "RA_OF_ASC_NODE": 36.1446, "ARG_OF_PERICENTER": 331.6907, "MEAN_ANOMALY": 37.1777, "EPHEMERIS_TYPE": 0, "CLASSIFICATION_TYPE": "U", "NORAD_CAT_ID": 59346, "ELEMENT_SET_NO": 999, "REV_AT_EPOCH": 638, "BSTAR": 0, "MEAN_MOTION_DOT": 1.77e-06, "MEAN_MOTION_DDOT": 0}, "tle": {"line1": "1 59346U 24059A   25357.76830198  .00000177  00000+0  00000+0 0  9994", "line2": "2 59346   0.0186  36.1446 0000344 331.6907  37.1777  1.00272824  6383"}}, "geometry": {"type": "Point", "coordinates": [-172.8201517559485, 0.013465665732742447]}}]}